satname,norad_id,inclination_deg,eccentricity,mean_motion_rev_per_day,perigee_km,apogee_km,l1,l2
STARLINK-1325,45554,53.0612,0.0007014,15.49946547,412.11626473074193,421.6483177925238,1 45554U 20025Z   25281.46074893  .00216026  00000+0  36992-2 0  9998,2 45554  53.0612   4.0911 0007014  23.7638 336.3693 15.49946547303089
STARLINK-1327,45555,53.0483,0.0002884,15.06398708,545.218246068911,549.2127894011401,1 45555U 20025AA  25281.73551343 -.00002443  00000+0 -14511-3 0  9991,2 45555  53.0483  48.7655 0002884  82.7961 277.3355 15.06398708302463
STARLINK-1336,45557,53.0391,0.0001974,15.97952349,278.78630549099944,281.4149777119037,1 45557U 20025AC  25281.66660497  .00411053  81223-4  88513-3 0  9999,2 45557  53.0391 354.2060 0001974  38.6178 321.4992 15.97952349303227
STARLINK-1356,45564,53.0537,0.000109,15.06397961,546.4629435126726,547.9726708606395,1 45564U 20025AK  25281.73920398  .00001895  00000+0  14610-3 0  9999,2 45564  53.0537  48.7480 0001090  93.8215 266.2899 15.06397961302462
STARLINK-1357,45565,53.0633,0.0004847,15.28619243,476.61488235349225,483.263101219929,1 45565U 20025AL  25281.72925961  .00101522  00000+0  35612-2 0  9992,2 45565  53.0633  37.6404 0004847 216.1180 143.9492 15.28619243302629
STARLINK-1361,45567,53.0553,0.0001221,15.06395973,546.3783135748708,548.069486706685,1 45567U 20025AN  25281.69128139  .00000155  00000+0  29266-4 0  9992,2 45567  53.0553  48.9646 0001221  84.2961 275.8168 15.06395973302463
STARLINK-1363,45568,53.0537,0.0001509,15.064051,546.1508944781945,548.2409599556286,1 45568U 20025AP  25281.70605653  .00003564  00000+0  25798-3 0  9998,2 45568  53.0537  49.1389 0001509  92.0053 268.1109 15.06405100302454
STARLINK-1366,45569,53.0537,0.0001201,15.06399409,546.3816346894018,548.0451038480987,1 45569U 20025AQ  25281.76131010  .00002809  00000+0  20738-3 0  9996,2 45569  53.0537  48.6494 0001201  63.0072 297.1039 15.06399409302463
STARLINK-1376,45570,53.054,0.0001411,15.06400621,546.2324882503981,548.1868210763441,1 45570U 20025AR  25281.75394811  .00000912  00000+0  80133-4 0  9996,2 45570  53.0540  48.6823 0001411  87.3768 272.7382 15.06400621302468
STARLINK-1320,45572,53.0601,0.0008221,15.38931514,443.6548766194119,454.8804954041525,1 45572U 20025AT  25281.56047941  .00080614  00000+0  20477-2 0  9996,2 45572  53.0601 358.4260 0008221 275.0811  84.9254 15.38931514303171
STARLINK-1321,45573,53.0552,0.0001435,15.06398764,546.2215580411857,548.2091341645173,1 45573U 20025AU  25281.74012373  .00002233  00000+0  16875-3 0  9997,2 45573  53.0552  38.7450 0001435  90.9322 269.1832 15.06398764302309
STARLINK-1328,45576,53.0557,0.0006846,15.60457365,381.70403709142374,390.9659521464564,1 45576U 20025AX  25281.51649577  .00109173  00000+0  12907-2 0  9999,2 45576  53.0557  25.5015 0006846 304.8784  55.1585 15.60457365302781
STARLINK-1331,45578,53.0541,4.88e-05,15.06428009,546.7877628968627,547.4636685379173,1 45578U 20025AZ  25281.71798120  .00003505  00000+0  25385-3 0  9999,2 45578  53.0541  38.8463 0000488 115.5404 244.5635 15.06428009302617
STARLINK-1333,45580,53.0544,0.0001373,15.06396366,546.2718437610629,548.1735475334872,1 45580U 20025BB  25281.52541878  .00001460  00000+0  11689-3 0  9997,2 45580  53.0544  49.7080 0001373  95.8209 264.2936 15.06396366302439
STARLINK-1335,45581,53.054,0.0001633,15.06402671,546.0724636373661,548.3342798027697,1 45581U 20025BC  25281.66271120  .00000510  00000+0  53140-4 0  9997,2 45581  53.0540  39.0920 0001633  89.1776 270.9400 15.06402671302599
STARLINK-1337,45582,53.054,0.0001205,15.06415353,546.3300047729726,547.9990024353401,1 45582U 20025BD  25281.75117448  .00003985  00000+0  28613-3 0  9995,2 45582  53.0540  38.6968 0001205  88.1631 271.9496 15.06415353302600
STARLINK-1347,45586,53.0562,0.0005049,15.27935317,478.52167952668515,485.44903108107064,1 45586U 20025BH  25281.71474513  .00076804  00000+0  27631-2 0  9992,2 45586  53.0562  28.0766 0005049 236.7306 123.3209 15.27935317302744
STARLINK-1360,45588,53.0467,0.0005837,15.70194839,354.40760236318147,362.2717652438523,1 45588U 20025BK  25281.51182763  .00091582  00000+0  73685-3 0  9996,2 45588  53.0467 314.8300 0005837  35.0594 325.0806 15.70194839303765
STARLINK-1364,45589,53.0552,0.0001469,15.06412771,546.1550889858163,548.1897448925138,1 45589U 20025BL  25281.75485931  .00004387  00000+0  31311-3 0  9993,2 45589  53.0552  38.6822 0001469  98.5710 261.5446 15.06412771302605
STARLINK-1365,45590,53.055,7.25e-05,15.06400667,546.7074260578556,547.7116013023397,1 45590U 20025BM  25281.83687053  .00000061  00000+0  22988-4 0  9999,2 45590  53.0550  68.3099 0000725  68.5863 291.5203 15.06400667302213
STARLINK-1443,45660,53.0553,0.0001471,15.06382472,546.2465525794087,548.2840059299651,1 45660U 20035D   25281.68944899 -.00004030  00000+0 -25195-3 0  9999,2 45660  53.0553  28.9736 0001471  79.6969 280.4185 15.06382472295820
STARLINK-1446,45663,53.0277,0.0003143,15.30884089,471.01989681072973,475.326630442446,1 45663U 20035G   25281.49462627  .00036953  00000+0  12272-2 0  9993,2 45663  53.0277 356.9991 0003143 192.4604 167.6318 15.30884089296251
STARLINK-1448,45665,53.0535,0.0001341,15.06394153,546.3007865643904,548.1581698538457,1 45665U 20035J   25281.49409153  .00011767  00000+0  80763-3 0  9997,2 45665  53.0535  29.8474 0001341  93.6632 266.4510 15.06394153295783
STARLINK-1451,45668,53.0541,0.0001435,15.06400024,546.217696874226,548.2052718892437,1 45668U 20035M   25281.69685929  .00003215  00000+0  23461-3 0  9990,2 45668  53.0541  29.2549 0001435  92.0418 268.0735 15.06400024295826
STARLINK-1452,45669,53.0394,0.0008113,15.24275252,487.3880517433927,498.53709791350957,1 45669U 20035N   25281.62504174  .00022383  00000+0  91498-3 0  9998,2 45669  53.0394  13.5951 0008113 291.3897  68.6233 15.24275252296035
STARLINK-1453,45670,53.0549,0.0001509,15.06406139,546.1477105931572,548.2377751095482,1 45670U 20035P   25281.57426203  .00001551  00000+0  12299-3 0  9996,2 45670  53.0549 359.4953 0001509 101.5613 258.5545 15.06406139296118
STARLINK-1454,45671,53.0553,0.000154,15.0639528,546.159518190535,548.292530001957,1 45671U 20035Q   25281.65258543  .00001600  00000+0  12632-3 0  9992,2 45671  53.0553  29.1378 0001540 110.0429 250.0726 15.06395280295808
STARLINK-1456,45673,53.0546,0.0001304,15.06401907,546.302648574293,548.1087779539112,1 45673U 20035S   25281.46828120  .00004740  00000+0  33689-3 0  9990,2 45673  53.0546  29.9688 0001304  94.6825 265.4313 15.06401907295793
STARLINK-1457,45674,53.0557,0.0001456,15.06394174,546.2210804968718,548.2377471965838,1 45674U 20035T   25281.47565842 -.00003973  00000+0 -24801-3 0  9996,2 45674  53.0557  29.9331 0001456  87.5240 272.5916 15.06394174295763
STARLINK-1458,45675,53.0552,0.0001546,15.06397444,546.1487316230623,548.2900518193819,1 45675U 20035U   25281.72998389  .00001739  00000+0  13563-3 0  9990,2 45675  53.0552  28.7890 0001546  98.9858 261.1306 15.06397444295790
STARLINK-1460,45676,53.0542,0.0001567,15.06405698,546.1088950614876,548.2792938264856,1 45676U 20035V   25281.70050691  .00003572  00000+0  25855-3 0  9998,2 45676  53.0542  28.9217 0001567  90.0063 270.1105 15.06405698295786
STARLINK-1392,45677,53.055,0.0001595,15.06398701,546.1109454590487,548.3201329190506,1 45677U 20035W   25281.64520699 -.00000092  00000+0  12703-4 0  9996,2 45677  53.0550  29.1723 0001595  94.8542 265.2629 15.06398701295812
STARLINK-1394,45679,53.0554,0.0001179,15.06337018,546.5880740688062,548.2211167770074,1 45679U 20035Y   25281.50976648  .00015533  00000+0  10612-2 0  9992,2 45679  53.0554  19.7802 0001179  82.3264 277.7859 15.06337018295932
STARLINK-1402,45685,53.0549,0.0001938,15.06427636,545.7847427376282,548.4689750093276,1 45685U 20035AE  25281.67320286  .00011620  00000+0  79708-3 0  9993,2 45685  53.0549  13.4666 0001938  83.4713 276.6497 15.06427636296041
STARLINK-1404,45686,53.0551,0.0001327,15.06401227,546.2888041079414,548.1267906171606,1 45686U 20035AF  25281.80094046  .00002920  00000+0  21486-3 0  9994,2 45686  53.0551  18.4755 0001327 101.7810 258.3328 15.06401227295983
STARLINK-1413,45689,53.055,0.0001653,15.06408959,546.0393444518586,548.3288556075277,1 45689U 20035AJ  25281.62033709  .00005321  00000+0  37577-3 0  9992,2 45689  53.0550  19.2816 0001653  81.2332 278.8844 15.06408959295861
STARLINK-1417,45693,53.0543,0.0001782,15.06383866,546.0269008410933,548.4951126907035,1 45693U 20035AN  25281.74934067 -.00001615  00000+0 -89569-4 0  9990,2 45693  53.0543  18.7056 0001782 109.1680 250.9502 15.06383866295969
STARLINK-1420,45695,53.0541,0.0001438,15.06406111,546.1969662373767,548.1886910961011,1 45695U 20035AQ  25281.48485672  .00004706  00000+0  33458-3 0  9993,2 45695  53.0541 359.8850 0001438  81.2337 278.8815 15.06406111296211
STARLINK-1422,45696,53.0543,0.0001337,15.06396713,546.2957116890639,548.1475525872975,1 45696U 20035AR  25281.76039896  .00006430  00000+0  45020-3 0  9992,2 45696  53.0543  18.6573 0001337  89.7415 270.3727 15.06396713295960
STARLINK-1351,45697,53.0553,0.0001434,15.06390037,546.2489939046636,548.2351926286128,1 45697U 20035AS  25281.60375135  .00003851  00000+0  27737-3 0  9994,2 45697  53.0553 359.3596 0001434  79.0138 281.1012 15.06390037296235
STARLINK-1398,45699,53.0532,0.0001403,15.45177441,429.90144495469485,431.8120486000398,1 45699U 20035AU  25281.85403566  .00069502  00000+0  14380-2 0  9997,2 45699  53.0532 324.5878 0001403 255.6255 104.4596 15.45177441296744
STARLINK-1400,45700,53.0555,0.0001347,15.06401368,546.2745213324833,548.1402091044747,1 45700U 20035AV  25281.64430021  .00007454  00000+0  51878-3 0  9995,2 45700  53.0555 359.1814 0001347  85.5049 274.6094 15.06401368296236
STARLINK-1403,45701,53.0598,0.0002095,15.06410325,545.7290595877203,548.6307673744686,1 45701U 20035AW  25281.47473637 -.00002315  00000+0 -13651-3 0  9997,2 45701  53.0598 359.9408 0002095 108.8191 251.3025 15.06410325296205
